SENTINEL-6              
1 46984U 20086A   24113.01697902 -.00000019  00000+0  18160-3 0  9991
2 46984  66.0428 327.9378 0007733 270.9512  89.0618 12.80930239159637
